KUIPER-00079            
1 64826U 25151L   25227.91668981 -.00002577  00000+0 -78676-4 0  9996
2 64826  51.8796 139.9158 0004586 258.3642  28.3740 15.28608715  4240
KUIPER-00080            
1 64827U 25151M   25227.91668981 -.00014904  00000+0 -49104-3 0  9997
2 64827  51.8796 139.9734 0002808 281.3901 359.6015 15.30230862  4848
KUIPER-00082            
1 64828U 25151N   25227.91625153  .00028618  00000+0  80882-3 0  9995
2 64828  51.8772 139.7836 0005132 251.0984 108.9446 15.36103680  4703
KUIPER-00083            
1 64829U 25151P   25227.92395290  .00035870  00000+0  10211-2 0  9999
2 64829  51.8779 139.8319 0005128 254.3990 105.6430 15.35765036  5892
KUIPER-00084            
1 64830U 25151Q   25227.91668981 -.00506967  00000+0 -26944-1 0  9991
2 64830  51.8904 141.0231 0006882 242.9495 206.1815 15.17199102  4420
KUIPER-00085            
1 64831U 25151R   25227.91375890  .00027796  00000+0  78198-3 0  9992
2 64831  51.8775 139.7722 0005693 238.1338 121.9095 15.36261196  4707
KUIPER-00086            
1 64832U 25151S   25227.47130769  .00045318  00000+0  12934-2 0  9993
2 64832  51.8781 142.0501 0005046 275.9458  84.0953 15.35575819  4623
KUIPER-00087            
1 64833U 25151T   25227.91832507  .00023789  00000+0  67657-3 0  9993
2 64833  51.8777 139.8016 0005073 243.2927 116.7540 15.36012972  4704
